[{"OBJECT_NAME":"NETSAT-1","OBJECT_ID":"2020-068W","EPOCH":"2026-03-09T22:42:38.711232","MEAN_MOTION":15.32042482,"ECCENTRICITY":0.00057337,"INCLINATION":97.8751,"RA_OF_ASC_NODE":63.2583,"ARG_OF_PERICENTER":18.5877,"MEAN_ANOMALY":341.5572,"EPHEMERIS_TYPE":0,"CLASSIFICATION_TYPE":"U","NORAD_CAT_ID":46506,"ELEMENT_SET_NO":999,"REV_AT_EPOCH":30009,"BSTAR":0.00059222329,"MEAN_MOTION_DOT":0.00018269,"MEAN_MOTION_DDOT":0},{"OBJECT_NAME":"STARLINK-2280","OBJECT_ID":"2021-021B","EPOCH":"2026-03-09T17:07:20.456544","MEAN_MOTION":15.2934668,"ECCENTRICITY":9.009e-5,"INCLINATION":53.1606,"RA_OF_ASC_NODE":257.8343,"ARG_OF_PERICENTER":86.4428,"MEAN_ANOMALY":273.6676,"EPHEMERIS_TYPE":0,"CLASSIFICATION_TYPE":"U","NORAD_CAT_ID":47861,"ELEMENT_SET_NO":999,"REV_AT_EPOCH":27640,"BSTAR":-4.2507093e-5,"MEAN_MOTION_DOT":-1.582e-5,"MEAN_MOTION_DDOT":0}]
